[{"OBJECT_NAME":"OBJECT Y","OBJECT_ID":"2023-085Y","EPOCH":"2026-03-09T22:38:54.992256","MEAN_MOTION":15.32500153,"ECCENTRICITY":0.00063298,"INCLINATION":97.4849,"RA_OF_ASC_NODE":180.8653,"ARG_OF_PERICENTER":67.4431,"MEAN_ANOMALY":292.748,"EPHEMERIS_TYPE":0,"CLASSIFICATION_TYPE":"U","NORAD_CAT_ID":57026,"ELEMENT_SET_NO":999,"REV_AT_EPOCH":15160,"BSTAR":0.00065512761,"MEAN_MOTION_DOT":0.00020524,"MEAN_MOTION_DDOT":0},{"OBJECT_NAME":"STARLINK-35500","OBJECT_ID":"2025-236H","EPOCH":"2026-03-09T11:32:10.345056","MEAN_MOTION":15.30164158,"ECCENTRICITY":0.00011602,"INCLINATION":53.1593,"RA_OF_ASC_NODE":104.7689,"ARG_OF_PERICENTER":74.6283,"MEAN_ANOMALY":285.4846,"EPHEMERIS_TYPE":0,"CLASSIFICATION_TYPE":"U","NORAD_CAT_ID":66093,"ELEMENT_SET_NO":999,"REV_AT_EPOCH":2291,"BSTAR":0.0010640103,"MEAN_MOTION_DOT":0.00031251,"MEAN_MOTION_DDOT":0}]
